CTC1_L_00172001-01
1 10000U 24462ZM  26075.70031250  .00000000  00000+0  00000-0 0  9996
2 10000  50.0000   0.0000 0000000   0.0000   0.0000 13.89609395    12
CTC1_L_00172001-02
1 10001U 22324FH  26075.70031250  .00000000  00000+0  00000-0 0  9992
2 10001  50.0000   0.0000 0000000   0.0000  90.0000 13.89609395    12
CTC1_L_00172001-03
1 10002U 25210BO  26075.70031250  .00000000  00000+0  00000-0 0  9990
2 10002  50.0000   0.0000 0000000   0.0000 180.0000 13.89609395    13
CTC1_L_00172001-04
1 10003U 25111KN  26075.70031250  .00000000  00000+0  00000-0 0  9991
2 10003  50.0000   0.0000 0000000   0.0000 270.0000 13.89609395    14
CTC1_L_00172002-01
1 10004U 26087ZA  26075.70031250  .00000000  00000+0  00000-0 0  9995
2 10004  50.0000  12.0000 0000000   0.0000  12.0000 13.89609395    12
CTC1_L_00172002-02
1 10005U 24894RZ  26075.70031250  .00000000  00000+0  00000-0 0  9990
2 10005  50.0000  12.0000 0000000   0.0000 102.0000 13.89609395    13
CTC1_L_00172002-03
1 10006U 22227DB  26075.70031250  .00000000  00000+0  00000-0 0  9999
2 10006  50.0000  12.0000 0000000   0.0000 192.0000 13.89609395    13
CTC1_L_00172002-04
1 10007U 23065ZL  26075.70031250  .00000000  00000+0  00000-0 0  9991
2 10007  50.0000  12.0000 0000000   0.0000 282.0000 13.89609395    14
CTC1_L_00172003-01
1 10008U 22941ZI  26075.70031250  .00000000  00000+0  00000-0 0  9994
2 10008  50.0000  24.0000 0000000   0.0000  24.0000 13.89609395    12
CTC1_L_00172003-02
1 10009U 22599J   26075.70031250  .00000000  00000+0  00000-0 0  9994
2 10009  50.0000  24.0000 0000000   0.0000 114.0000 13.89609395    13
CTC1_L_00172003-03
1 10010U 23688BK  26075.70031250  .00000000  00000+0  00000-0 0  9996
2 10010  50.0000  24.0000 0000000   0.0000 204.0000 13.89609395    15
CTC1_L_00172003-04
1 10011U 22266NJ  26075.70031250  .00000000  00000+0  00000-0 0  9998
2 10011  50.0000  24.0000 0000000   0.0000 294.0000 13.89609395    15
CTC1_L_00172004-01
1 10012U 26163GK  26075.70031250  .00000000  00000+0  00000-0 0  9999
2 10012  50.0000  36.0000 0000000   0.0000  36.0000 13.89609395    13
CTC1_L_00172004-02
1 10013U 22843LC  26075.70031250  .00000000  00000+0  00000-0 0  9991
2 10013  50.0000  36.0000 0000000   0.0000 126.0000 13.89609395    14
CTC1_L_00172004-03
1 10014U 26120X   26075.70031250  .00000000  00000+0  00000-0 0  9994
2 10014  50.0000  36.0000 0000000   0.0000 216.0000 13.89609395    15
CTC1_L_00172004-04
1 10015U 22637CP  26075.70031250  .00000000  00000+0  00000-0 0  9994
2 10015  50.0000  36.0000 0000000   0.0000 306.0000 13.89609395    16
CTC1_L_00172005-01
1 10016U 23798XZ  26075.70031250  .00000000  00000+0  00000-0 0  9994
2 10016  50.0000  48.0000 0000000   0.0000  48.0000 13.89609395    13
CTC1_L_00172005-02
1 10017U 23012BO  26075.70031250  .00000000  00000+0  00000-0 0  9994
2 10017  50.0000  48.0000 0000000   0.0000 138.0000 13.89609395    14
CTC1_L_00172005-03
1 10018U 23206LS  26075.70031250  .00000000  00000+0  00000-0 0  9990
2 10018  50.0000  48.0000 0000000   0.0000 228.0000 13.89609395    15
CTC1_L_00172005-04
1 10019U 25958PO  26075.70031250  .00000000  00000+0  00000-0 0  9997
2 10019  50.0000  48.0000 0000000   0.0000 318.0000 13.89609395    16
CTC1_L_00172006-01
1 10020U 26438NY  26075.70031250  .00000000  00000+0  00000-0 0  9993
2 10020  50.0000  60.0000 0000000   0.0000  60.0000 13.89609395    16
CTC1_L_00172006-02
1 10021U 22588QG  26075.70031250  .00000000  00000+0  00000-0 0  9996
2 10021  50.0000  60.0000 0000000   0.0000 150.0000 13.89609395    17
CTC1_L_00172006-03
1 10022U 22231PQ  26075.70031250  .00000000  00000+0  00000-0 0  9992
2 10022  50.0000  60.0000 0000000   0.0000 240.0000 13.89609395    18
CTC1_L_00172006-04
1 10023U 22733MO  26075.70031250  .00000000  00000+0  00000-0 0  9990
2 10023  50.0000  60.0000 0000000   0.0000 330.0000 13.89609395    19
CTC1_L_00172007-01
1 10024U 22272AM  26075.70031250  .00000000  00000+0  00000-0 0  9999
2 10024  50.0000  72.0000 0000000   0.0000  72.0000 13.89609395    16
CTC1_L_00172007-02
1 10025U 24069EJ  26075.70031250  .00000000  00000+0  00000-0 0  9996
2 10025  50.0000  72.0000 0000000   0.0000 162.0000 13.89609395    17
CTC1_L_00172007-03
1 10026U 23060QV  26075.70031250  .00000000  00000+0  00000-0 0  9997
2 10026  50.0000  72.0000 0000000   0.0000 252.0000 13.89609395    18
CTC1_L_00172007-04
1 10027U 22589HB  26075.70031250  .00000000  00000+0  00000-0 0  9993
2 10027  50.0000  72.0000 0000000   0.0000 342.0000 13.89609395    19
CTC1_L_00172008-01
1 10028U 25619FD  26075.70031250  .00000000  00000+0  00000-0 0  9991
2 10028  50.0000  84.0000 0000000   0.0000  84.0000 13.89609395    16
CTC1_L_00172008-02
1 10029U 22855MB  26075.70031250  .00000000  00000+0  00000-0 0  9991
2 10029  50.0000  84.0000 0000000   0.0000 174.0000 13.89609395    17
CTC1_L_00172008-03
1 10030U 26778EB  26075.70031250  .00000000  00000+0  00000-0 0  9991
2 10030  50.0000  84.0000 0000000   0.0000 264.0000 13.89609395    19
CTC1_L_00172008-04
1 10031U 24354KP  26075.70031250  .00000000  00000+0  00000-0 0  9990
2 10031  50.0000  84.0000 0000000   0.0000 354.0000 13.89609395    10
CTC1_L_00172009-01
1 10032U 24854N   26075.70031250  .00000000  00000+0  00000-0 0  9996
2 10032  50.0000  96.0000 0000000   0.0000  96.0000 13.89609395    17
CTC1_L_00172009-02
1 10033U 25775CN  26075.70031250  .00000000  00000+0  00000-0 0  9990
2 10033  50.0000  96.0000 0000000   0.0000 186.0000 13.89609395    18
CTC1_L_00172009-03
1 10034U 26138WE  26075.70031250  .00000000  00000+0  00000-0 0  9995
2 10034  50.0000  96.0000 0000000   0.0000 276.0000 13.89609395    19
CTC1_L_00172009-04
1 10035U 24805IK  26075.70031250  .00000000  00000+0  00000-0 0  9995
2 10035  50.0000  96.0000 0000000   0.0000   6.0000 13.89609395    11
CTC1_L_00172010-01
1 10036U 24340JZ  26075.70031250  .00000000  00000+0  00000-0 0  9990
2 10036  50.0000 108.0000 0000000   0.0000 108.0000 13.89609395    19
CTC1_L_00172010-02
1 10037U 23304ZX  26075.70031250  .00000000  00000+0  00000-0 0  9990
2 10037  50.0000 108.0000 0000000   0.0000 198.0000 13.89609395    19
CTC1_L_00172010-03
1 10038U 26891DR  26075.70031250  .00000000  00000+0  00000-0 0  9995
2 10038  50.0000 108.0000 0000000   0.0000 288.0000 13.89609395    10
CTC1_L_00172010-04
1 10039U 24508BK  26075.70031250  .00000000  00000+0  00000-0 0  9999
2 10039  50.0000 108.0000 0000000   0.0000  18.0000 13.89609395    12
CTC1_L_00172011-01
1 10040U 23335ZZ  26075.70031250  .00000000  00000+0  00000-0 0  9998
2 10040  50.0000 120.0000 0000000   0.0000 120.0000 13.89609395    12
CTC1_L_00172011-02
1 10041U 26582FV  26075.70031250  .00000000  00000+0  00000-0 0  9996
2 10041  50.0000 120.0000 0000000   0.0000 210.0000 13.89609395    13
CTC1_L_00172011-03
1 10042U 22613SF  26075.70031250  .00000000  00000+0  00000-0 0  9998
2 10042  50.0000 120.0000 0000000   0.0000 300.0000 13.89609395    14
CTC1_L_00172011-04
1 10043U 23113JY  26075.70031250  .00000000  00000+0  00000-0 0  9995
2 10043  50.0000 120.0000 0000000   0.0000  30.0000 13.89609395    15
CTC1_L_00172012-01
1 10044U 24080DA  26075.70031250  .00000000  00000+0  00000-0 0  9990
2 10044  50.0000 132.0000 0000000   0.0000 132.0000 13.89609395    12
CTC1_L_00172012-02
1 10045U 22027HW  26075.70031250  .00000000  00000+0  00000-0 0  9990
2 10045  50.0000 132.0000 0000000   0.0000 222.0000 13.89609395    13
CTC1_L_00172012-03
1 10046U 25489YK  26075.70031250  .00000000  00000+0  00000-0 0  9996
2 10046  50.0000 132.0000 0000000   0.0000 312.0000 13.89609395    14
CTC1_L_00172012-04
1 10047U 22972DJ  26075.70031250  .00000000  00000+0  00000-0 0  9991
2 10047  50.0000 132.0000 0000000   0.0000  42.0000 13.89609395    15
CTC1_L_00172013-01
1 10048U 25432CH  26075.70031250  .00000000  00000+0  00000-0 0  9996
2 10048  50.0000 144.0000 0000000   0.0000 144.0000 13.89609395    12
CTC1_L_00172013-02
1 10049U 25481TF  26075.70031250  .00000000  00000+0  00000-0 0  9991
2 10049  50.0000 144.0000 0000000   0.0000 234.0000 13.89609395    13
CTC1_L_00172013-03
1 10050U 25626NT  26075.70031250  .00000000  00000+0  00000-0 0  9994
2 10050  50.0000 144.0000 0000000   0.0000 324.0000 13.89609395    15
CTC1_L_00172013-04
1 10051U 25320EO  26075.70031250  .00000000  00000+0  00000-0 0  9996
2 10051  50.0000 144.0000 0000000   0.0000  54.0000 13.89609395    16
CTC1_L_00172014-01
1 10052U 26197FP  26075.70031250  .00000000  00000+0  00000-0 0  9990
2 10052  50.0000 156.0000 0000000   0.0000 156.0000 13.89609395    13
CTC1_L_00172014-02
1 10053U 22599BT  26075.70031250  .00000000  00000+0  00000-0 0  9993
2 10053  50.0000 156.0000 0000000   0.0000 246.0000 13.89609395    14
CTC1_L_00172014-03
1 10054U 22949JS  26075.70031250  .00000000  00000+0  00000-0 0  9993
2 10054  50.0000 156.0000 0000000   0.0000 336.0000 13.89609395    15
CTC1_L_00172014-04
1 10055U 22395TM  26075.70031250  .00000000  00000+0  00000-0 0  9999
2 10055  50.0000 156.0000 0000000   0.0000  66.0000 13.89609395    16
CTC1_L_00172015-01
1 10056U 25040QW  26075.70031250  .00000000  00000+0  00000-0 0  9990
2 10056  50.0000 168.0000 0000000   0.0000 168.0000 13.89609395    13
CTC1_L_00172015-02
1 10057U 25608IO  26075.70031250  .00000000  00000+0  00000-0 0  9991
2 10057  50.0000 168.0000 0000000   0.0000 258.0000 13.89609395    14
CTC1_L_00172015-03
1 10058U 24080CR  26075.70031250  .00000000  00000+0  00000-0 0  9995
2 10058  50.0000 168.0000 0000000   0.0000 348.0000 13.89609395    15
CTC1_L_00172015-04
1 10059U 25926HR  26075.70031250  .00000000  00000+0  00000-0 0  9996
2 10059  50.0000 168.0000 0000000   0.0000  78.0000 13.89609395    16
CTC1_L_00172016-01
1 10060U 23528ZR  26075.70031250  .00000000  00000+0  00000-0 0  9994
2 10060  50.0000 180.0000 0000000   0.0000 180.0000 13.89609395    16
CTC1_L_00172016-02
1 10061U 26877VA  26075.70031250  .00000000  00000+0  00000-0 0  9995
2 10061  50.0000 180.0000 0000000   0.0000 270.0000 13.89609395    17
